{
  "norad_id": 63112,
  "name": "STARLINK-11590 [DTC]",
  "history": [
    {
      "epoch": "2026-04-15T11:03:01.164960Z",
      "apogee_km": 356.6055427914325,
      "perigee_km": 356.1768227273187,
      "latitude_deg": -3.553823686367704e-05,
      "longitude_deg": 6.264331234920775,
      "height_km": 355.96721166614134,
      "semi_major_axis_km": 6734.528182759375,
      "eccentricity": 3.183e-05,
      "inclination_deg": 43.0,
      "raan_deg": 15.6414,
      "arg_perigee_deg": 335.6454,
      "mean_anomaly_deg": 24.4398,
      "mean_motion_rev_day": 15.70876345
    },
    {
      "epoch": "2026-04-16T16:02:38.577984Z",
      "apogee_km": 357.9004977004215,
      "perigee_km": 354.3825106098511,
      "latitude_deg": 1.544346081802169e-05,
      "longitude_deg": -77.11552966655377,
      "height_km": 355.43125450487486,
      "semi_major_axis_km": 6734.278504155136,
      "eccentricity": 0.0002612,
      "inclination_deg": 43.0005,
      "raan_deg": 8.3581,
      "arg_perigee_deg": 285.9596,
      "mean_anomaly_deg": 74.0984,
      "mean_motion_rev_day": 15.70963708
    },
    {
      "epoch": "2026-04-17T10:21:22.159008Z",
      "apogee_km": 356.7545947446115,
      "perigee_km": 356.0182419540488,
      "latitude_deg": -1.2343789116951533e-05,
      "longitude_deg": 2.8513027659987173,
      "height_km": 356.42300418096676,
      "semi_major_axis_km": 6734.52341834933,
      "eccentricity": 5.467e-05,
      "inclination_deg": 43.0017,
      "raan_deg": 3.7586,
      "arg_perigee_deg": 223.9862,
      "mean_anomaly_deg": 136.0962,
      "mean_motion_rev_day": 15.70878012
    },
    {
      "epoch": "2026-04-18T09:14:45.545568Z",
      "apogee_km": 357.59065120293326,
      "perigee_km": 354.2512318697245,
      "latitude_deg": 1.2630446362833968e-06,
      "longitude_deg": 12.813922031091098,
      "height_km": 354.94102204327464,
      "semi_major_axis_km": 6734.057941536328,
      "eccentricity": 0.00024795,
      "inclination_deg": 43.002,
      "raan_deg": 358.0087,
      "arg_perigee_deg": 296.8185,
      "mean_anomaly_deg": 63.2429,
      "mean_motion_rev_day": 15.7104089
    },
    {
      "epoch": "2026-04-19T02:01:53.719392Z",
      "apogee_km": 357.8324655866718,
      "perigee_km": 354.93662132298596,
      "latitude_deg": 2.547398990197269e-05,
      "longitude_deg": 116.12422988005608,
      "height_km": 356.62639322308996,
      "semi_major_axis_km": 6734.521543454828,
      "eccentricity": 0.000215,
      "inclination_deg": 43.0026,
      "raan_deg": 353.7924,
      "arg_perigee_deg": 251.1136,
      "mean_anomaly_deg": 108.9499,
      "mean_motion_rev_day": 15.70878668
    },
    {
      "epoch": "2026-04-20T14:39:21.461184Z",
      "apogee_km": 357.7352798533184,
      "perigee_km": 355.1694013145561,
      "latitude_deg": -2.4284831970337664e-05,
      "longitude_deg": -83.94212601999278,
      "height_km": 356.2503861235365,
      "semi_major_axis_km": 6734.589340583937,
      "eccentricity": 0.0001905,
      "inclination_deg": 43.0006,
      "raan_deg": 344.5958,
      "arg_perigee_deg": 268.8776,
      "mean_anomaly_deg": 91.1873,
      "mean_motion_rev_day": 15.70854947
    },
    {
      "epoch": "2026-04-21T18:07:24.871872Z",
      "apogee_km": 358.0324467152559,
      "perigee_km": 354.2760590543967,
      "latitude_deg": 5.409123668171422e-05,
      "longitude_deg": -143.9842113105178,
      "height_km": 356.837145247369,
      "semi_major_axis_km": 6734.291252884826,
      "eccentricity": 0.0002789,
      "inclination_deg": 43.0006,
      "raan_deg": 337.6959,
      "arg_perigee_deg": 241.029,
      "mean_anomaly_deg": 119.0299,
      "mean_motion_rev_day": 15.70959247
    },
    {
      "epoch": "2026-04-22T15:29:15.744768Z",
      "apogee_km": 359.3251984776598,
      "perigee_km": 352.99092054468383,
      "latitude_deg": -7.151065990417429e-06,
      "longitude_deg": -110.68854292212231,
      "height_km": 354.5431056530674,
      "semi_major_axis_km": 6734.2950595111715,
      "eccentricity": 0.0004703,
      "inclination_deg": 43.0,
      "raan_deg": 332.331,
      "arg_perigee_deg": 296.0206,
      "mean_anomaly_deg": 64.0177,
      "mean_motion_rev_day": 15.70957915
    },
    {
      "epoch": "2026-04-22T21:35:30.230880Z",
      "apogee_km": 358.03875973293907,
      "perigee_km": 354.93948479147366,
      "latitude_deg": 4.0793155251293366e-07,
      "longitude_deg": 155.9659223656203,
      "height_km": 356.02307528194626,
      "semi_major_axis_km": 6734.626122262206,
      "eccentricity": 0.0002301,
      "inclination_deg": 42.9982,
      "raan_deg": 330.7965,
      "arg_perigee_deg": 278.8721,
      "mean_anomaly_deg": 81.1886,
      "mean_motion_rev_day": 15.70842078
    },
    {
      "epoch": "2026-04-24T14:47:36.451104Z",
      "apogee_km": 357.27441101618206,
      "perigee_km": 355.1328906892104,
      "latitude_deg": -1.9409566530894835e-05,
      "longitude_deg": -114.09951377977421,
      "height_km": 356.65769666635623,
      "semi_major_axis_km": 6734.340650852696,
      "eccentricity": 0.000159,
      "inclination_deg": 42.9995,
      "raan_deg": 320.4491,
      "arg_perigee_deg": 230.4429,
      "mean_anomaly_deg": 129.6298,
      "mean_motion_rev_day": 15.70941962
    },
    {
      "epoch": "2026-04-25T19:47:14.673696Z",
      "apogee_km": 358.047764448389,
      "perigee_km": 354.2321231320384,
      "latitude_deg": 3.2667693725623135e-06,
      "longitude_deg": 162.5191099629336,
      "height_km": 356.600978254731,
      "semi_major_axis_km": 6734.276943790213,
      "eccentricity": 0.0002833,
      "inclination_deg": 42.9998,
      "raan_deg": 313.1677,
      "arg_perigee_deg": 248.8683,
      "mean_anomaly_deg": 111.1882,
      "mean_motion_rev_day": 15.70964254
    },
    {
      "epoch": "2026-04-25T19:47:14.674560Z",
      "apogee_km": 358.048101162236,
      "perigee_km": 354.2317864181905,
      "latitude_deg": 6.93176700292969e-06,
      "longitude_deg": 162.51911026125956,
      "height_km": 356.6010996270551,
      "semi_major_axis_km": 6734.276943790213,
      "eccentricity": 0.00028335,
      "inclination_deg": 42.9998,
      "raan_deg": 313.1677,
      "arg_perigee_deg": 248.8683,
      "mean_anomaly_deg": 111.1882,
      "mean_motion_rev_day": 15.70964254
    },
    {
      "epoch": "2026-04-27T05:21:33.587424Z",
      "apogee_km": 358.1709742455414,
      "perigee_km": 353.2242993213613,
      "latitude_deg": 5.6088674137917367e-05,
      "longitude_deg": 9.131210036826568,
      "height_km": 354.50359711344333,
      "semi_major_axis_km": 6733.834636783451,
      "eccentricity": 0.0003673,
      "inclination_deg": 42.9994,
      "raan_deg": 304.7373,
      "arg_perigee_deg": 293.0378,
      "mean_anomaly_deg": 67.0103,
      "mean_motion_rev_day": 15.71119038
    },
    {
      "epoch": "2026-04-28T17:58:59.814624Z",
      "apogee_km": 357.6590185589748,
      "perigee_km": 355.1537684165969,
      "latitude_deg": -3.078544994773414e-05,
      "longitude_deg": 169.06994630328006,
      "height_km": 356.17504604475096,
      "semi_major_axis_km": 6734.543393487786,
      "eccentricity": 0.000186,
      "inclination_deg": 42.9993,
      "raan_deg": 295.5395,
      "arg_perigee_deg": 270.1868,
      "mean_anomaly_deg": 89.8786,
      "mean_motion_rev_day": 15.70871023
    },
    {
      "epoch": "2026-04-29T19:55:31.192032Z",
      "apogee_km": 357.5054781843073,
      "perigee_km": 355.14033586496043,
      "latitude_deg": -3.9069099578763477e-05,
      "longitude_deg": 132.35769655234975,
      "height_km": 355.53199859615285,
      "semi_major_axis_km": 6734.459907024634,
      "eccentricity": 0.0001756,
      "inclination_deg": 42.9991,
      "raan_deg": 289.0234,
      "arg_perigee_deg": 298.4547,
      "mean_anomaly_deg": 61.6143,
      "mean_motion_rev_day": 15.70900234
    },
    {
      "epoch": "2026-04-30T11:11:06.465120Z",
      "apogee_km": 357.40125462265587,
      "perigee_km": 354.58598397595233,
      "latitude_deg": -1.2343625535224825e-05,
      "longitude_deg": -100.99914396157385,
      "height_km": 355.98957374143015,
      "semi_major_axis_km": 6734.130619299304,
      "eccentricity": 0.00020903,
      "inclination_deg": 42.9991,
      "raan_deg": 285.1902,
      "arg_perigee_deg": 260.8791,
      "mean_anomaly_deg": 99.184,
      "mean_motion_rev_day": 15.71015457
    },
    {
      "epoch": "2026-05-02T10:29:28.342176Z",
      "apogee_km": 357.22117343274385,
      "perigee_km": 355.31668343618276,
      "latitude_deg": 4.592408175507993e-05,
      "longitude_deg": -104.41433034278496,
      "height_km": 356.5730176160057,
      "semi_major_axis_km": 6734.405928434463,
      "eccentricity": 0.0001414,
      "inclination_deg": 42.9997,
      "raan_deg": 273.3089,
      "arg_perigee_deg": 236.0384,
      "mean_anomaly_deg": 124.035,
      "mean_motion_rev_day": 15.70919121
    },
    {
      "epoch": "2026-05-03T10:54:25.158240Z",
      "apogee_km": 360.32638574958037,
      "perigee_km": 352.56612546414453,
      "latitude_deg": -1.9838169310087938e-05,
      "longitude_deg": -117.78685723717557,
      "height_km": 354.23331886441446,
      "semi_major_axis_km": 6734.583255606862,
      "eccentricity": 0.00057615,
      "inclination_deg": 43.0003,
      "raan_deg": 267.1759,
      "arg_perigee_deg": 300.8175,
      "mean_anomaly_deg": 59.2125,
      "mean_motion_rev_day": 15.70857076
    },
    {
      "epoch": "2026-05-04T17:25:37.376256Z",
      "apogee_km": 357.5615737545804,
      "perigee_km": 355.39302794970536,
      "latitude_deg": -1.3664875596061115e-05,
      "longitude_deg": 135.49452236077437,
      "height_km": 355.7560309192983,
      "semi_major_axis_km": 6734.614300852142,
      "eccentricity": 0.000161,
      "inclination_deg": 42.9983,
      "raan_deg": 259.5116,
      "arg_perigee_deg": 297.0816,
      "mean_anomaly_deg": 62.9887,
      "mean_motion_rev_day": 15.70846214
    }
  ]
}